[{"OBJECT_NAME":"STARLINK-3546","OBJECT_ID":"2022-016E","EPOCH":"2026-03-09T22:22:52.542048","MEAN_MOTION":15.15260371,"ECCENTRICITY":4.574e-5,"INCLINATION":53.2162,"RA_OF_ASC_NODE":325.333,"ARG_OF_PERICENTER":337.214,"MEAN_ANOMALY":22.8835,"EPHEMERIS_TYPE":0,"CLASSIFICATION_TYPE":"U","NORAD_CAT_ID":51718,"ELEMENT_SET_NO":999,"REV_AT_EPOCH":22462,"BSTAR":0.0017256751,"MEAN_MOTION_DOT":0.00032685,"MEAN_MOTION_DDOT":0},{"OBJECT_NAME":"SUPERVIEW NEO-1 02","OBJECT_ID":"2022-043C","EPOCH":"2026-03-09T23:18:16.407072","MEAN_MOTION":15.15488211,"ECCENTRICITY":0.00011754,"INCLINATION":97.3469,"RA_OF_ASC_NODE":144.9918,"ARG_OF_PERICENTER":5.9221,"MEAN_ANOMALY":354.2026,"EPHEMERIS_TYPE":0,"CLASSIFICATION_TYPE":"U","NORAD_CAT_ID":52322,"ELEMENT_SET_NO":999,"REV_AT_EPOCH":21454,"BSTAR":0.00034150894,"MEAN_MOTION_DOT":6.402e-5,"MEAN_MOTION_DDOT":0}]
